STARLINK-2475           
1 48133U 21027AT  26068.54712537  .00014323  00000+0  49460-3 0  9995
2 48133  53.1606 165.9904 0001148 102.8051 257.3078 15.30212263272498
NUSAT-50 (NANCY ROMAN)  
1 60493U 24149AB  26068.80227738  .00012094  00000+0  42252-3 0  9994
2 60493  97.3817 150.7693 0002523 238.0469 122.0527 15.29713355 86930
